STARLINK-4377           
1 53221U 22084AJ  26068.73107904 -.00000483  00000+0 -33090-4 0  9997
2 53221  97.6036 130.2412 0001787 133.2580 226.8794 15.01250280199320
LACUNASAT-4D            
1 66781U 25276DW  26068.72955153  .00010278  00000+0  86123-3 0  9999
2 66781  97.5312 142.8344 0010850 115.0636 245.1714 14.98548204  7724
